NORAD_CAT_ID,OBJECT_NAME,OBJECT_TYPE,EPOCH,MEAN_MOTION,ECCENTRICITY,INCLINATION,RA_OF_ASC_NODE,ARG_OF_PERICENTER,MEAN_ANOMALY,BSTAR,MEAN_MOTION_DOT,MEAN_MOTION_DDOT,TLE_LINE0,TLE_LINE1,TLE_LINE2,SEMIMAJOR_AXIS,PERIOD,APOGEE,PERIGEE,DECAYED
55741.0,STARLINK-5592,PAYLOAD,2024-07-18 16:40:44,14.98335603,0.0002788,70.003,314.8551,266.224,93.8601,0.00019606,2.247e-05,0.0,0 STARLINK-5592,1 55741U 23028A   24200.69495460  .00002247  00000-0  19606-3 0  9998,2 55741  70.0030 314.8551 0002788 266.2240  93.8601 14.98335603 76505,6950.176,96.107,573.978,570.103,0.0
55741.0,STARLINK-5592,PAYLOAD,2024-07-19 13:30:28,14.98336387,0.000274,70.0032,312.6673,262.8995,97.1853,0.00028744,3.339e-05,0.0,0 STARLINK-5592,1 55741U 23028A   24201.56283375  .00003339  00000-0  28744-3 0  9991,2 55741  70.0032 312.6673 0002740 262.8995  97.1853 14.98336387 76433,6950.173,96.107,573.942,570.134,0.0
55741.0,STARLINK-5592,PAYLOAD,2024-07-19 16:42:44,14.9833913,0.0002735,70.0032,312.3307,263.4131,96.6717,0.00032765,3.82e-05,0.0,0 STARLINK-5592,1 55741U 23028A   24201.69635234  .00003820  00000-0  32765-3 0  9993,2 55741  70.0032 312.3307 0002735 263.4131  96.6717 14.98339130 76653,6950.165,96.106,573.931,570.129,0.0
55741.0,STARLINK-5592,PAYLOAD,2024-07-20 13:32:29,14.98333896,0.0002878,70.003,310.1419,266.0274,94.0556,6.5464e-05,6.88e-06,0.0,0 STARLINK-5592,1 55741U 23028A   24202.56423265  .00000688  00000-0  65464-4 0  9991,2 55741  70.0030 310.1419 0002878 266.0274  94.0556 14.98333896 76584,6950.181,96.107,574.046,570.046,0.0
55741.0,STARLINK-5592,PAYLOAD,2024-07-20 16:44:45,14.98338087,0.0002919,70.0031,309.8056,268.6144,91.468,0.00015077,1.707e-05,0.0,0 STARLINK-5592,1 55741U 23028A   24202.69774932  .00001707  00000-0  15077-3 0  9992,2 55741  70.0031 309.8056 0002919 268.6144  91.4680 14.98338087 76808,6950.168,96.106,574.062,570.004,0.0
55741.0,STARLINK-5592,PAYLOAD,2024-07-21 13:34:29,14.98342657,0.0003046,70.0011,307.6176,268.8883,91.1927,0.00013093,1.47e-05,0.0,0 STARLINK-5592,1 55741U 23028A   24203.56562410  .00001470  00000-0  13093-3 0  9998,2 55741  70.0011 307.6176 0003046 268.8883  91.1927 14.98342657 76932,6950.154,96.106,574.136,569.902,0.0
55741.0,STARLINK-5592,PAYLOAD,2024-07-21 16:46:45,14.98349324,0.0002998,70.0026,307.2807,270.3448,89.7368,0.00028086,3.261e-05,0.0,0 STARLINK-5592,1 55741U 23028A   24203.69913945  .00003261  00000-0  28086-3 0  9993,2 55741  70.0026 307.2807 0002998 270.3448  89.7368 14.98349324 76755,6950.133,96.106,574.082,569.914,0.0
55741.0,STARLINK-5592,PAYLOAD,2024-07-22 10:24:15,14.98325716,0.0003399,70.0003,305.4284,277.4409,82.6363,-1.5845e-05,-2.82e-06,0.0,0 STARLINK-5592,1 55741U 23028A   24204.43351467 -.00000282  00000-0 -15845-4 0  9993,2 55741  70.0003 305.4284 0003399 277.4409  82.6363 14.98325716 76868,6950.206,96.107,574.434,569.709,0.0
55741.0,STARLINK-5592,PAYLOAD,2024-07-22 16:48:47,14.98329404,0.0003028,70.0003,304.7543,269.535,90.5463,2.5385e-05,2.1e-06,0.0,0 STARLINK-5592,1 55741U 23028A   24204.70055169  .00000210  00000-0  25385-4 0  9992,2 55741  70.0003 304.7543 0003028 269.5350  90.5463 14.98329404 77109,6950.195,96.107,574.164,569.955,0.0
55741.0,STARLINK-5592,PAYLOAD,2024-07-23 13:38:32,14.98339178,0.0002998,70.0005,302.5685,264.0729,96.0088,7.2254e-06,-7e-08,0.0,0 STARLINK-5592,1 55741U 23028A   24205.56842606 -.00000007  00000-0  72254-5 0  9990,2 55741  70.0005 302.5685 0002998 264.0729  96.0088 14.98339178 77034,6950.165,96.106,574.113,569.946,0.0
55741.0,STARLINK-5592,PAYLOAD,2024-07-24 10:28:17,14.98323465,0.0002767,70.0012,300.3796,269.8886,90.1956,0.00018887,2.161e-05,0.0,0 STARLINK-5592,1 55741U 23028A   24206.43631574  .00002161  00000-0  18887-3 0  9999,2 55741  70.0012 300.3796 0002767 269.8886  90.1956 14.98323465 77167,6950.213,96.107,574.001,570.155,0.0
55741.0,STARLINK-5592,PAYLOAD,2024-07-24 16:52:49,14.98326027,0.0002753,70.0012,299.7063,270.5323,89.5521,0.00020629,2.369e-05,0.0,0 STARLINK-5592,1 55741U 23028A   24206.70335550  .00002369  00000-0  20629-3 0  9991,2 55741  70.0012 299.7063 0002753 270.5323  89.5521 14.98326027 77409,6950.205,96.107,573.984,570.157,0.0
55741.0,STARLINK-5592,PAYLOAD,2024-07-25 10:30:18,14.98332997,0.0003164,70.0004,297.8545,272.3082,87.7715,0.00012555,1.405e-05,0.0,0 STARLINK-5592,1 55741U 23028A   24207.43771186  .00001405  00000-0  12555-3 0  9990,2 55741  70.0004 297.8545 0003164 272.3082  87.7715 14.98332997 77311,6950.184,96.107,574.248,569.85,0.0
55741.0,STARLINK-5592,PAYLOAD,2024-07-26 10:32:19,14.98330064,0.0002965,70.0004,295.3291,267.4308,92.6511,0.00012416,1.389e-05,0.0,0 STARLINK-5592,1 55741U 23028A   24208.43911138  .00001389  00000-0  12416-3 0  9991,2 55741  70.0004 295.3291 0002965 267.4308  92.6511 14.98330064 77464,6950.193,96.107,574.118,569.997,0.0
55741.0,STARLINK-5592,PAYLOAD,2024-07-26 12:08:27,14.98333154,0.000295,70.0002,295.1603,266.162,93.9202,0.00015776,1.79e-05,0.0,0 STARLINK-5592,1 55741U 23028A   24208.50586841  .00001790  00000-0  15776-3 0  9996,2 55741  70.0002 295.1603 0002950 266.1620  93.9202 14.98333154 77671,6950.183,96.107,574.098,569.998,0.0
55741.0,STARLINK-5592,PAYLOAD,2024-07-27 10:34:20,14.98329817,0.0003083,69.9999,292.8041,266.6837,93.397,3.6326e-05,3.4e-06,0.0,0 STARLINK-5592,1 55741U 23028A   24209.44051129  .00000340  00000-0  36326-4 0  9991,2 55741  69.9999 292.8041 0003083 266.6837  93.3970 14.98329817 77617,6950.193,96.107,574.201,569.916,0.0
55741.0,STARLINK-5592,PAYLOAD,2024-07-27 15:22:44,14.98329822,0.0002859,69.9997,292.2976,260.7042,99.3793,3.8819e-05,3.7e-06,0.0,0 STARLINK-5592,1 55741U 23028A   24209.64079113  .00000370  00000-0  38819-4 0  9998,2 55741  69.9997 292.2976 0002859 260.7042  99.3793 14.98329822 77849,6950.193,96.107,574.046,570.071,0.0
55741.0,STARLINK-5592,PAYLOAD,2024-07-28 12:12:28,14.9833565,0.0003133,69.9996,290.1109,265.983,94.0971,9.3358e-05,1.021e-05,0.0,0 STARLINK-5592,1 55741U 23028A   24210.50866490  .00001021  00000-0  93358-4 0  9990,2 55741  69.9996 290.1109 0003133 265.9830  94.0971 14.98335650 77779,6950.175,96.107,574.218,569.863,0.0
55741.0,STARLINK-5592,PAYLOAD,2024-07-28 15:24:44,14.98337697,0.0003185,69.9994,289.7737,267.3617,92.7178,9.8219e-05,1.079e-05,0.0,0 STARLINK-5592,1 55741U 23028A   24210.64218290  .00001079  00000-0  98219-4 0  9998,2 55741  69.9994 289.7737 0003185 267.3617  92.7178 14.98337697 77995,6950.169,96.107,574.248,569.82,0.0
55741.0,STARLINK-5592,PAYLOAD,2024-07-29 12:14:29,14.98330621,0.0003009,70.0,287.5874,262.2747,97.807,8.5508e-05,9.27e-06,0.0,0 STARLINK-5592,1 55741U 23028A   24211.51006822  .00000927  00000-0  85508-4 0  9999,2 55741  70.0000 287.5874 0003009 262.2747  97.8070 14.98330621 77927,6950.191,96.107,574.147,569.965,0.0
55741.0,STARLINK-5592,PAYLOAD,2024-07-29 21:51:18,14.98331985,0.0002927,70.0002,286.5777,262.2564,97.8263,4.5589e-05,4.51e-06,0.0,0 STARLINK-5592,1 55741U 23028A   24211.91062837  .00000451  00000-0  45589-4 0  9998,2 55741  70.0002 286.5777 0002927 262.2564  97.8263 14.98331985 78182,6950.187,96.107,574.086,570.017,0.0
55741.0,STARLINK-5592,PAYLOAD,2024-07-30 09:04:14,14.98333795,0.0002979,70.0,285.3991,263.2102,96.8718,5.1447e-05,5.21e-06,0.0,0 STARLINK-5592,1 55741U 23028A   24212.37794622  .00000521  00000-0  51447-4 0  9991,2 55741  70.0000 285.3991 0002979 263.2102  96.8718 14.98333795 78254,6950.181,96.107,574.117,569.976,0.0
55741.0,STARLINK-5592,PAYLOAD,2024-07-30 21:53:18,14.98333811,0.000296,69.9999,284.0524,263.7952,96.287,8.198e-05,8.85e-06,0.0,0 STARLINK-5592,1 55741U 23028A   24212.91202507  .00000885  00000-0  81980-4 0  9995,2 55741  69.9999 284.0524 0002960 263.7952  96.2870 14.98333811 78335,6950.181,96.107,574.103,569.989,0.0
55741.0,STARLINK-5592,PAYLOAD,2024-07-31 12:18:32,14.98326163,0.000293,69.9997,282.537,265.5641,94.5183,1.4127e-06,-7.6e-07,0.0,0 STARLINK-5592,1 55741U 23028A   24213.51287207 -.00000076  00000-0  14127-5 0  9995,2 55741  69.9997 282.5370 0002930 265.5641  94.5183 14.98326163 78225,6950.205,96.107,574.106,570.033,0.0
55741.0,STARLINK-5592,PAYLOAD,2024-07-31 13:54:40,14.98326765,0.0002925,69.9997,282.3686,265.8308,94.2517,7.176e-06,-7e-08,0.0,0 STARLINK-5592,1 55741U 23028A   24213.57963165 -.00000007  00000-0  71760-5 0  9995,2 55741  69.9997 282.3686 0002925 265.8308  94.2517 14.98326765 78439,6950.203,96.107,574.101,570.035,0.0
55741.0,STARLINK-5592,PAYLOAD,2024-08-01 12:20:36,14.98288299,0.0003201,69.9994,280.0119,263.1429,96.9366,-0.0004525,-5.482e-05,0.0,0 STARLINK-5592,1 55741U 23028A   24214.51430595 -.00005482  00000-0 -45250-3 0  9992,2 55741  69.9994 280.0119 0003201 263.1429  96.9366 14.98288299 78570,6950.322,96.11,574.412,569.962,0.0
55741.0,STARLINK-5592,PAYLOAD,2024-08-01 21:57:23,14.98297993,0.0003354,69.9991,279.0013,258.737,101.3413,-0.00017526,-2.182e-05,0.0,0 STARLINK-5592,1 55741U 23028A   24214.91485919 -.00002182  00000-0 -17526-3 0  9995,2 55741  69.9991 279.0013 0003354 258.7370 101.3413 14.98297993 78634,6950.292,96.109,574.488,569.826,0.0
55741.0,STARLINK-5592,PAYLOAD,2024-08-02 12:22:34,14.98336026,0.0003358,69.9987,277.4856,260.2879,99.79,0.00020997,2.414e-05,0.0,0 STARLINK-5592,1 55741U 23028A   24215.51567143  .00002414  00000-0  20997-3 0  9994,2 55741  69.9987 277.4856 0003358 260.2879  99.7900 14.98336026 78522,6950.174,96.107,574.373,569.705,0.0
55741.0,STARLINK-5592,PAYLOAD,2024-08-02 13:58:41,14.98337901,0.0003344,69.9988,277.3173,260.2184,99.8598,0.0002335,2.695e-05,0.0,0 STARLINK-5592,1 55741U 23028A   24215.58242996  .00002695  00000-0  23350-3 0  9994,2 55741  69.9988 277.3173 0003344 260.2184  99.8598 14.98337901 78738,6950.168,96.106,574.358,569.709,0.0
55741.0,STARLINK-5592,PAYLOAD,2024-08-02 21:59:22,14.98340215,0.0003266,69.999,276.4751,261.4953,98.5836,0.00019193,2.198e-05,0.0,0 STARLINK-5592,1 55741U 23028A   24215.91622849  .00002198  00000-0  19193-3 0  9998,2 55741  69.9990 276.4751 0003266 261.4953  98.5836 14.98340215 78781,6950.161,96.106,574.296,569.756,0.0
